GLOBAL-2                
1 43812U 18099BG  26068.69955396  .00003970  00000+0  26145-3 0  9998
2 43812  97.3697 109.3280 0007454 127.1924 232.9986 15.08046936396919
STARLINK-4201           
1 52856U 22062AC  26068.16687207 -.00000557  00000+0 -16886-4 0  9998
2 52856  53.2195  26.5158 0001506  67.3477 292.7674 15.08837656205841
